[{"OBJECT_NAME":"ONEWEB-0209","OBJECT_ID":"2021-031F","EPOCH":"2026-03-09T16:19:42.544992","MEAN_MOTION":13.14502284,"ECCENTRICITY":0.00017988,"INCLINATION":87.898,"RA_OF_ASC_NODE":309.5754,"ARG_OF_PERICENTER":76.1733,"MEAN_ANOMALY":283.9597,"EPHEMERIS_TYPE":0,"CLASSIFICATION_TYPE":"U","NORAD_CAT_ID":48215,"ELEMENT_SET_NO":999,"REV_AT_EPOCH":23530,"BSTAR":-0.00014704773,"MEAN_MOTION_DOT":-4.2e-7,"MEAN_MOTION_DDOT":0},{"OBJECT_NAME":"METEOR 3-4","OBJECT_ID":"1991-030A","EPOCH":"2026-03-09T22:37:43.485024","MEAN_MOTION":13.16698643,"ECCENTRICITY":0.00136956,"INCLINATION":82.5383,"RA_OF_ASC_NODE":254.5168,"ARG_OF_PERICENTER":49.9217,"MEAN_ANOMALY":59.7097,"EPHEMERIS_TYPE":0,"CLASSIFICATION_TYPE":"U","NORAD_CAT_ID":21232,"ELEMENT_SET_NO":999,"REV_AT_EPOCH":67604,"BSTAR":-0.00044279739,"MEAN_MOTION_DOT":-1.57e-6,"MEAN_MOTION_DDOT":0}]
